SHIJIAN-6 04B (SJ-6 04B)
1 37180U 10051B   24079.92935077  .00002077  00000+0  19145-3 0  9998
2 37180  97.8340  69.2956 0011685 159.5843 200.5847 14.95746140733061
FENGYUN 3B              
1 37214U 10059A   24079.93913356  .00000171  00000+0  11306-3 0  9995
2 37214  99.0654 106.7476 0021871 347.5356  76.5936 14.14457981691630
COSMO-SKYMED 4          
1 37216U 10060A   24079.86596388  .00000949  00000+0  12581-3 0  9992
2 37216  97.8858 264.3208 0001425  86.2343 273.9033 14.82152212723264
ELEKTRO-L 1 (GOMS 2)    
1 37344U 11001A   24079.04427101  .00000130  00000+0  00000+0 0  9997
2 37344   7.8054  62.3633 0005685   9.6387 163.8909  1.00169967 48262
RESOURCESAT-2           
1 37387U 11015A   24079.85161611  .00000258  00000+0  13715-3 0  9991
2 37387  98.5857 148.0682 0004644  29.4685 330.6754 14.21693790670297
YOUTHSAT                
1 37388U 11015B   24079.50783318  .00000364  00000+0  17333-3 0  9996
2 37388  98.3003  83.9535 0013749 226.5044 300.0058 14.24809258670871
APRIZESAT 6             
1 37793U 11044F   24079.68311083  .00001151  00000+0  18019-3 0  9990
2 37793  98.3157 320.8442 0045354 179.8849 248.9979 14.74138854676433
JUGNU                   
1 37839U 11058B   24079.50492951  .00000609  00000+0  18052-3 0  9995
2 37839  19.9592 246.2231 0018862  27.1898   9.7912 14.13141903642914
SRMSAT                  
1 37841U 11058D   24079.09255891  .00000536  00000+0  14883-3 0  9999
2 37841  19.9728 341.6774 0011886 183.9617 207.4368 14.11056842641825
SUOMI NPP               
1 37849U 11061A   24079.87999783  .00000179  00000+0  10561-3 0  9994
2 37849  98.7150  19.2343 0001319 110.9363 249.1955 14.19532940642197
M-CUBED & EXP-1 PRIME   
1 37855U 11061F   24079.29190338  .00101103  00000+0  14620-2 0  9994
2 37855 101.6844 207.7725 0073959 260.7097  98.5771 15.52357392678974
YAOGAN 12               
1 37875U 11066B   24079.89192329  .00012543  00000+0  52644-3 0  9997
2 37875  97.2320 142.6290 0005651 280.9280  79.1322 15.23588189687820
ZIYUAN 3-1 (ZY 3-1)     
1 38046U 12001A   24079.92135519  .00015892  00000+0  57051-3 0  9997
2 38046  97.2577 143.9578 0006540 101.7042 258.4933 15.28738805677288
BEIDOU-2 M4             
1 38251U 12018B   24079.19183867 -.00000095  00000+0  00000+0 0  9999
2 38251  56.3030 331.6139 0012914 274.8598  85.0334  1.86232148 81023
ARIRANG-3 (KOMPSAT-3)   
1 38338U 12025B   24079.52645789  .00001052  00000+0  21655-3 0  9992
2 38338  98.2532  25.7689 0010715 153.0626 207.1133 14.62557789631630
HORYU-2                 
1 38340U 12025D   24079.24672606  .00003919  00000+0  51523-3 0  9993
2 38340  98.1593 177.3978 0009478 332.9832  27.0885 14.80774568626919
METOP-B                 
1 38771U 12049A   24079.92238469  .00000212  00000+0  11682-3 0  9992
2 38771  98.6384 139.1064 0000512  90.7691 269.3545 14.21487061596862
SJ-9A                   
1 38860U 12056A   24079.92070291  .00001814  00000+0  23527-3 0  9996
2 38860  97.5906  77.3138 0029532  71.9572 288.4856 14.81635591617305
COSMOS 2484             
1 39059U 13001C   24079.86784533  .00000032  00000+0  15973-3 0  9999
2 39059  82.5078  11.3240 0027310  23.0086 337.2210 12.42893814506989
SARAL                   
1 39086U 13009A   24079.87796393  .00000243  00000+0  10591-3 0  9990
2 39086  98.5509 266.2285 0002076 157.0285 203.0992 14.32364485578294
AAUSAT 3                
1 39087U 13009B   24079.48043625  .00001249  00000+0  43146-3 0  9990
2 39087  98.3734 272.3290 0012576 147.8845 212.3111 14.37451312579290
STRAND-1                
1 39090U 13009E   24079.53247341  .00000594  00000+0  21938-3 0  9998
2 39090  98.3832 270.2837 0009331 154.0068 206.1589 14.35934483579393
BRITE-AUSTRIA           
1 39091U 13009F   24079.49306299  .00000413  00000+0  15766-3 0  9994
2 39091  98.3870 269.5087 0010674 161.5629 198.5946 14.35712585579390
UNIBRITE                
1 39092U 13009G   24079.50208843  .00000394  00000+0  15157-3 0  9995
2 39092  98.3910 269.4198 0009709 156.8048 203.3578 14.35585926579345
AIST-2 (RS-43)          
1 39133U 13015D   24079.91903628  .00007358  00000+0  43896-3 0  9994
2 39133  64.8734  28.3916 0006112 253.8892 106.1559 15.11811878599864
GAOFEN-1                
1 39150U 13018A   24079.87770618  .00001190  00000+0  17771-3 0  9993
2 39150  97.9959 153.1654 0020759  26.4764 333.7502 14.76506012587381
NEE-01 PEGASO           
1 39151U 13018B   24079.27978370  .00003876  00000+0  46184-3 0  9996
2 39151  98.0234 195.6375 0014655 336.5514  23.5030 14.84846870588623
TURKSAT-3USAT           
1 39152U 13018C   24079.76192920  .00004488  00000+0  51710-3 0  9991
2 39152  97.8301 166.8239 0013886 296.7551  63.2243 14.86133931588927
CUBEBUG-1 (CAPITAN BETO)
1 39153U 13018D   24079.91746346  .00005075  00000+0  58104-3 0  9993
2 39153  98.0602 204.0105 0014195 326.3214  33.7098 14.86353484588941
PROBA-V                 
1 39159U 13021A   24079.93193861  .00000162  00000+0  89733-4 0  9998
2 39159  98.3105  91.4124 0004606  28.8389 331.3044 14.23223713564562
ESTCUBE 1               
1 39161U 13021C   24079.72635477  .00002811  00000+0  41751-3 0  9992
2 39161  97.8370 148.9260 0009787 152.6459 207.5268 14.75756447583937
ARIRANG-5 (KOMPSAT-5)   
1 39227U 13042A   24079.84934037  .00002977  00000+0  21695-3 0  9993
2 39227  97.6215 266.9970 0002034  72.2951 287.8497 15.04506277580723
GONETS-M 5              
1 39249U 13048A   24079.89292553  .00000038  00000+0  20253-3 0  9993
2 39249  82.4808 134.1324 0016671 195.0487 165.0099 12.42890911477254
GONETS-M 7              
1 39251U 13048C   24079.46145223  .00000049  00000+0  28492-3 0  9995
2 39251  82.4881 136.8793 0017207 196.9059 163.1449 12.42868449477000
FENGYUN 3C              
1 39260U 13052A   24079.93355644  .00000180  00000+0  11174-3 0  9997
2 39260  98.4298  84.2727 0010276 219.9433 140.0987 14.16162554542699
CASSIOPE                
1 39265U 13055A   24079.88014144  .00028778  00000+0  62897-3 0  9997
2 39265  80.9545 294.9029 0517137 183.6876 176.0462 14.65072271545270
APRIZESAT 7             
1 39416U 13066A   24079.48930724  .00002704  00000+0  30466-3 0  9992
2 39416  97.6609  41.7837 0040338  46.3156 314.1391 14.86842345559203
ZACUBE-1 (TSHEPISOSAT)  
1 39417U 13066B   24079.45139973  .00005739  00000+0  61635-3 0  9990
2 39417  97.7246  37.5735 0053962  96.9443 263.7916 14.87870617558237
APRIZESAT 8             
1 39425U 13066K   24079.86059133  .00002026  00000+0  24609-3 0  9999
2 39425  97.7192  35.2074 0051114  98.4698 262.2315 14.83678169558267
CINEMA-3 (KHUSAT-2)     
1 39426U 13066L   24079.78541702  .00003734  00000+0  54688-3 0  9996
2 39426  97.8416   4.8015 0098059 339.7734  19.9601 14.72963620553847
TRITON-1                
1 39427U 13066M   24079.89748121  .00006093  00000+0  87345-3 0  9990
2 39427  97.8425   0.8196 0104776  10.4955 349.8406 14.73149088553254
DELFI-N3XT              
1 39428U 13066N   24079.72970723  .00011492  00000+0  15160-2 0  9992
2 39428  97.8389   0.5370 0104804  19.3033 341.2101 14.76403056553060
GOMX-1                  
1 39430U 13066Q   24079.84740189  .00002695  00000+0  45817-3 0  9997
2 39430  97.7466 319.6184 0141580 176.1282 184.1053 14.63476965549975
BRITE-PL1 (LEM)         
1 39431U 13066R   24079.88839390  .00000829  00000+0  18090-3 0  9995
2 39431  97.6938 246.0042 0198498  38.9584 322.5723 14.48716639545386
ICUBE-1                 
1 39432U 13066S   24079.45438187  .00009293  00000+0  74889-3 0  9990
2 39432  97.5143  64.2234 0024342 276.5217  83.3236 14.99896416560483
HUMSAT-D                
1 39433U 13066T   24079.91306276  .00015721  00000+0  10815-2 0  9996
2 39433  97.4888  73.7766 0018420 224.9510 135.0227 15.05848346562481
VELOX-PII               
1 39438U 13066Y   24079.44529788  .00003482  00000+0  41627-3 0  9991
2 39438  97.7787  29.4325 0064095 163.7331 196.5960 14.83342057555869
FIRST-MOVE              
1 39439U 13066Z   24079.85955695  .00019096  00000+0  16363-2 0  9993
2 39439  97.7155  44.3362 0052541  76.3514 284.3550 14.96498694558598
CUBEBUG-2 (LO-74)       
1 39440U 13066AA  24079.42564471  .00004011  00000+0  48878-3 0  9994
2 39440  97.8050  25.1582 0070532 206.0563 153.7095 14.82171012555038
NEE-02 KRYSAOR          
1 39441U 13066AB  24079.36942270  .00002909  00000+0  38005-3 0  9990
2 39441  97.8146  21.2916 0074053 227.0615 132.4370 14.79334412554654
FUNCUBE-1 (AO-73)       
1 39444U 13066AE  24079.84072620  .00009956  00000+0  10026-2 0  9990
2 39444  97.7103  40.8721 0051791  78.3818 282.3207 14.90351789557382
HINCUBE                 
1 39445U 13066AF  24079.86777000  .00008465  00000+0  86085-3 0  9990
2 39445  97.7114  40.5859 0051839  81.1473 279.5609 14.90006600556906
UWE-3                   
1 39446U 13066AG  24079.39464225  .00004478  00000+0  51541-3 0  9990
2 39446  97.7719  31.1891 0062690 152.8571 207.5944 14.84816968555374
COSMOS 2488             
1 39483U 13076A   24079.41346405  .00000033  00000+0  16578-3 0  9998
2 39483  82.4854 319.5735 0020111  80.6484 279.6869 12.42881442464050
COSMOS 2489             
1 39484U 13076B   24079.86914879  .00000042  00000+0  23068-3 0  9996
2 39484  82.4893 320.4189 0022162  81.0967 279.2620 12.42873297464372
COSMOS 2490             
1 39485U 13076C   24079.92259299  .00000015  00000+0  38315-4 0  9994
2 39485  82.4836 318.8139 0021884  95.2887 265.0690 12.42887603464325
AIST-1 (RS-41)          
1 39492U 13078C   24079.86248570  .00002692  00000+0  26892-3 0  9996
2 39492  82.4209 341.8300 0019648 133.0988 227.1879 14.91004550555250
KAZEOSAT 1              
1 39731U 14024A   24079.84311045  .00000439  00000+0  14684-3 0  9993
2 39731  98.3996 157.7386 0001086  85.1184 275.0129 14.42026779520520
COSMOS 2496             
1 39761U 14028A   24079.47873556  .00000043  00000+0  23567-3 0  9990
2 39761  82.4399 262.1510 0020194  67.2288 293.0922 12.42889962445684
